KUIPER-00016            
1 63732U 25088J   25199.58335648  .00035313  00000+0  18113-2 0  9992
2 63732  51.8834  71.9458 0009701  31.9938 257.2793 15.16181064 12580
KUIPER-00018            
1 63733U 25088K   25199.36725843  .00012894  00000+0  35910-3 0  9993
2 63733  51.8679  69.7524 0006173  37.2594 322.8820 15.37132606 12608
KUIPER-00019            
1 63734U 25088L   25199.03449066  .00013063  00000+0  36564-3 0  9993
2 63734  51.8689  71.2807 0003980  52.8889 307.2461 15.36970252 12553
KUIPER-00020            
1 63735U 25088M   25199.33961925 -.00216764  00000+0 -67899-2 0  9999
2 63735  51.8695  70.3084 0008682  30.8540 329.2954 15.33380520 12801
KUIPER-00021            
1 63736U 25088N   25199.25002315 -.00739379  00000+0 -25921-1 0  9991
2 63736  51.8690  70.9897 0005698  37.5499  64.4079 15.31584114 12614
KUIPER-00023            
1 63737U 25088P   25199.58335648 -.00518562  00000+0 -20011-1 0  9990
2 63737  51.8689  69.8508 0009187  37.7111 248.9684 15.27982979 12953
KUIPER-00024            
1 63738U 25088Q   25199.36441889  .00002418  00000+0  73451-4 0  9997
2 63738  51.8734  69.0265 0002244  92.3089 267.8155 15.38255164 13084
KUIPER-00025            
1 63739U 25088R   25199.04872119  .00014898  00000+0  41766-3 0  9995
2 63739  51.8663  71.3599 0005619  45.1870 314.9572 15.36795349 12881
